[{"OBJECT_NAME":"STARLINK-6165","OBJECT_ID":"2023-090AC","EPOCH":"2026-03-09T22:14:46.541184","MEAN_MOTION":15.02538238,"ECCENTRICITY":0.00013725,"INCLINATION":43.0039,"RA_OF_ASC_NODE":272.9651,"ARG_OF_PERICENTER":278.6107,"MEAN_ANOMALY":81.458,"EPHEMERIS_TYPE":0,"CLASSIFICATION_TYPE":"U","NORAD_CAT_ID":57127,"ELEMENT_SET_NO":999,"REV_AT_EPOCH":15026,"BSTAR":3.7116568e-5,"MEAN_MOTION_DOT":2.98e-6,"MEAN_MOTION_DDOT":0},{"OBJECT_NAME":"COSMOS 397 DEB","OBJECT_ID":"1971-015DW","EPOCH":"2026-03-09T03:04:47.479584","MEAN_MOTION":14.84951431,"ECCENTRICITY":0.01922698,"INCLINATION":65.6672,"RA_OF_ASC_NODE":330.2096,"ARG_OF_PERICENTER":116.44,"MEAN_ANOMALY":245.6588,"EPHEMERIS_TYPE":0,"CLASSIFICATION_TYPE":"U","NORAD_CAT_ID":21723,"ELEMENT_SET_NO":999,"REV_AT_EPOCH":75672,"BSTAR":0.0022623994,"MEAN_MOTION_DOT":0.00026928,"MEAN_MOTION_DDOT":0}]
